LEMUR-1                 
1 40044U 14033AL  26176.37827476  .00001833  00000+0  21527-3 0  9993
2 40044  97.7884 326.0016 0049320  52.4472 308.1209 14.85274564646686
LEMUR-2-GREENBERG       
1 42837U 17042N   26176.45058203  .00020317  00000+0  66754-3 0  9990
2 42837  97.3821 357.0385 0007742 342.7505  17.3473 15.31562811489653
LEMUR-2-ANDIS           
1 42838U 17042P   26176.46079058  .00026490  00000+0  77638-3 0  9994
2 42838  97.3683 357.2617 0007527 340.3987  19.6966 15.35151462489729
LEMUR-2-MONSON          
1 42839U 17042Q   26176.47733068  .00018549  00000+0  67583-3 0  9998
2 42839  97.4081 357.0248 0005531 333.9573  26.1388 15.28227889489431
LEMUR-2-FURIAUS         
1 42840U 17042R   26176.45014725  .00021817  00000+0  74037-3 0  9994
2 42840  97.3771 354.9747 0007596  42.6204 317.5625 15.30502582489470
LEMUR-2-PETERG          
1 42841U 17042S   26176.45010122  .00029442  00000+0  88921-3 0  9991
2 42841  97.3992   1.4954 0002735 318.2823  41.8211 15.34204539489708
LEMUR-2-DEMBITZ         
1 42842U 17042T   26176.46983641  .00018776  00000+0  63755-3 0  9994
2 42842  97.3824 358.0245 0006015 359.1117   1.0112 15.30526347489610
LEMUR-2-ZACHARY         
1 42845U 17042W   26176.51494139  .00058848  00000+0  10110-2 0  9992
2 42845  97.3594   8.3323 0002374 353.4358   6.6862 15.50949573490490
LEMUR-2-AMANDA-SVANTE   
1 48269U 21034B   26176.18264424  .00040024  00000+0  11863-2 0  9992
2 48269  97.5760 254.6807 0003133 186.1710 173.9495 15.34732723282288
LEMUR-2-SPECIAL-K       
1 48273U 21034F   26176.20317842  .00201266  00000+0  18743-2 0  9994
2 48273  97.5650 263.6529 0004938 222.4622 137.6256 15.66721021282941
LEMUR-2-EMBRIONOVIS     
1 56970U 23084AQ  26176.14111031  .00016063  00000+0  43505-3 0  9993
2 56970  97.6292 320.6469 0007463 287.0247  73.0179 15.37730349168907
LEMUR-2-DEVERILL-M-T    
1 57391U 23100F   26176.55196247  .00031372  00000+0  78275-3 0  9999
2 57391  99.4472 217.7270 0005541  21.2183 338.9285 15.40140522162539
LEMUR-2-BASS            
1 58259U 23174D   26176.18587398  .00020799  00000+0  46742-3 0  9999
2 58259  97.3851 261.0108 0008106 137.7069 222.4805 15.43338546146590
LEMUR-2-JK0903EM1407    
1 58336U 23174CJ  26176.20390868  .00032740  00000+0  54297-3 0  9995
2 58336  97.3929 266.9010 0005225  96.7387 263.4460 15.52060153146974
LEMUR-2-MJR092620       
1 58340U 23174CN  26176.25465256  .00023413  00000+0  49476-3 0  9999
2 58340  97.3979 266.4330 0006900  94.2444 265.9594 15.45150004146895
LEMUR-2-NIMBUS2000      
1 58899U 24022A   26176.52511207  .00027894  00000+0  69126-3 0  9990
2 58899  97.4107  26.6323 0010308  90.6972 269.5455 15.40311749133554
LEMUR-2-VALHALLA        
1 58900U 24022B   26176.52325723  .00019961  00000+0  50228-3 0  9998
2 58900  97.4105  26.6163 0010804  86.8533 273.3949 15.39908246133551
LEMUR-2-CAEL            
1 58903U 24022E   26176.52599584  .00021415  00000+0  51604-3 0  9995
2 58903  97.4088  27.5698 0009005  73.0333 287.1900 15.41228150133624
LEMUR-2-JOHNNYTRUONG    
1 59146U 24043BA  26176.42082569  .00048389  00000+0  57418-3 0  9995
2 59146  97.5374 328.6374 0004865 151.8978 208.2542 15.61050028129325
LEMUR-2-TOMATOKECHUP    
1 60471U 24149D   26176.51064173  .00013614  00000+0  38804-3 0  9997
2 60471  97.3803 258.5789 0002174 159.6336 200.4995 15.36192816103444
LEMUR-2-STELLA          
1 60533U 24149BT  26176.48719390  .00013431  00000+0  78588-3 0  9990
2 60533  97.6740 258.9786 0001501  96.5927 263.5474 15.11970744101756
LEMUR-2-MARHISYAM       
1 60536U 24149BW  26176.47054611  .00012380  00000+0  73609-3 0  9991
2 60536  97.6883 259.4196 0003342 103.3028 256.8575 15.11407654101732
LEMUR-2-AHMED-ASRAR     
1 60576U 24149DN  26176.16598370  .00014037  00000+0  80077-3 0  9994
2 60576  97.7007 261.2370 0001134  24.8255 335.3030 15.12874742101776
LEMUR-2-LLOYD           
1 60577U 24149DP  26176.46204261  .00012247  00000+0  76967-3 0  9995
2 60577  97.6746 257.5956 0005163 119.4895 240.6849 15.09383703101641
LEMUR-2-SQUIRRELCOMM    
1 60578U 24149DQ  26176.48781799  .00007261  00000+0  48561-3 0  9993
2 60578  97.6719 257.3730 0005962  38.9778 321.1878 15.07240187101656
LEMUR-2-SIERRINI        
1 60579U 24149DR  26176.49577855  .00014610  00000+0  87457-3 0  9994
2 60579  97.6847 259.1248 0006365 141.2754 218.8933 15.11108940101719
LEMUR-2-WILSON          
1 62694U 25009CP  26176.46037400  .00001786  00000+0  16767-3 0  9990
2 62694  97.7026 254.7799 0003699  34.8871 325.2592 14.95198771 78590
LEMUR-2-STAR-FOX        
1 62696U 25009CR  26176.48375107  .00007125  00000+0  53931-3 0  9990
2 62696  97.6953 258.0329 0004368  94.3525 265.8199 15.02605703 78800
LEMUR-2-ARIANNA         
1 62699U 25009CU  26176.48219640  .00008869  00000+0  67026-3 0  9998
2 62699  97.6894 257.7991 0004783  98.7471 261.4296 15.02592038 78803
